[{"OBJECT_NAME":"UNISAT-7","OBJECT_ID":"2021-022P","EPOCH":"2026-03-09T16:28:31.560096","MEAN_MOTION":15.37617151,"ECCENTRICITY":0.00117035,"INCLINATION":97.3969,"RA_OF_ASC_NODE":332.7353,"ARG_OF_PERICENTER":74.8463,"MEAN_ANOMALY":285.4075,"EPHEMERIS_TYPE":0,"CLASSIFICATION_TYPE":"U","NORAD_CAT_ID":47945,"ELEMENT_SET_NO":999,"REV_AT_EPOCH":27455,"BSTAR":0.000470835,"MEAN_MOTION_DOT":0.00017358,"MEAN_MOTION_DDOT":0},{"OBJECT_NAME":"TRANSPORTER-6 OBJECT H","OBJECT_ID":"2023-001H","EPOCH":"2026-03-09T22:33:13.150656","MEAN_MOTION":15.3897652,"ECCENTRICITY":0.00084522,"INCLINATION":97.3274,"RA_OF_ASC_NODE":133.0043,"ARG_OF_PERICENTER":107.7381,"MEAN_ANOMALY":252.4788,"EPHEMERIS_TYPE":0,"CLASSIFICATION_TYPE":"U","NORAD_CAT_ID":55016,"ELEMENT_SET_NO":999,"REV_AT_EPOCH":17694,"BSTAR":0.00043815759,"MEAN_MOTION_DOT":0.0001686,"MEAN_MOTION_DDOT":0}]
